OBJECT_NAME,OBJECT_ID,EPOCH,MEAN_MOTION,ECCENTRICITY,INCLINATION,RA_OF_ASC_NODE,ARG_OF_PERICENTER,MEAN_ANOMALY,EPHEMERIS_TYPE,CLASSIFICATION_TYPE,NORAD_CAT_ID,ELEMENT_SET_NO,REV_AT_EPOCH,BSTAR,MEAN_MOTION_DOT,MEAN_MOTION_DDOT
OSCAR 7 (AO-7),1974-089B,2026-07-14T00:52:32.907072,12.53698534,.0012657,101.9905,208.5629,80.4928,348.4864,0,U,7530,999,36388,.99893E-4,-.3E-6,0
PHASE 3B (AO-10),1983-058B,2026-07-13T02:29:46.528800,2.05872336,.60022234,25.9345,215.2934,122.7887,309.2966,0,U,14129,999,29602,0,-.187E-5,0
UOSAT 2 (UO-11),1984-021B,2026-07-13T20:49:13.799712,14.90847126,.0009198,97.8075,160.1477,95.1181,265.1087,0,U,14781,999,26110,.75115E-4,.684E-5,0
LUSAT (LO-19),1990-005G,2026-07-14T01:01:42.299616,14.34130536,.0012504,98.8847,217.5876,124.5771,235.6594,0,U,20442,999,90624,.31693E-4,.42E-6,0
EYESAT A (AO-27),1993-061C,2026-07-14T04:48:15.266016,14.30948896,.0008818,98.6869,262.6022,28.6268,331.5397,0,U,22825,999,71086,.31953E-4,.39E-6,0
ITAMSAT (IO-26),1993-061D,2026-07-14T04:06:59.812704,14.31376485,.0009021,98.6816,262.4937,12.3228,347.8174,0,U,22826,999,71117,.3118E-4,.38E-6,0
RADIO ROSTO (RS15),1994-085A,2026-07-14T03:59:15.605376,11.27583533,.0156881,64.8153,259.5850,358.8979,1.1579,0,U,23439,999,29894,.11356E-3,-.39E-6,0
JAS-2 (FO-29),1996-046B,2026-07-14T03:34:13.603584,13.53275581,.0350411,98.5220,40.3250,26.6515,335.2172,0,U,24278,999,47681,.5014E-4,.15E-6,0
TECHSAT 1B (GO-32),1998-043D,2026-07-13T23:13:04.326816,14.24433220,.0002157,99.0084,188.4033,116.4622,243.6777,0,U,25397,999,45514,.25815E-4,.13E-6,0
ISS (ZARYA),1998-067A,2026-07-14T03:41:05.800704,15.49005057,.0006704,51.6308,166.6375,293.6864,66.3421,0,U,25544,999,57593,.81426E-4,.4039E-4,0
PCSAT (NO-44),2001-043C,2026-07-14T04:32:43.691712,14.31964773,.0005925,67.0494,174.4309,266.5157,93.5268,0,U,26931,999,29431,.34689E-4,.1E-6,0
SAUDISAT 1C (SO-50),2002-058C,2026-07-14T04:41:02.516928,14.83097342,.0074559,64.5517,45.4195,257.4690,101.8068,0,U,27607,999,26846,.63774E-4,.388E-5,0
CUTE-1 (CO-55),2003-031E,2026-07-14T00:17:39.453216,14.24351102,.0010809,98.6742,203.2342,105.7080,254.5292,0,U,27844,999,19549,.83592E-4,.15E-5,0
CUBESAT XI-IV (CO-57),2003-031J,2026-07-13T12:32:00.136320,14.23634003,.0010486,98.6773,202.4416,123.7879,236.4299,0,U,27848,999,19512,.7551E-4,.129E-5,0
MOZHAETS 4 (RS22),2003-042A,2026-07-14T04:25:25.489056,14.73514156,.0011131,98.3470,20.3073,176.4663,315.0484,0,U,27939,999,21952,.12649E-3,.769E-5,0
CUBESAT XI-V,2005-043F,2026-07-13T23:15:21.537792,14.72700573,.0015221,98.3013,351.1584,118.8441,241.4296,0,U,28895,999,10569,.11722E-3,.696E-5,0
CUTE-1.7+APD II (CO-65),2008-021C,2026-07-14T03:51:09.232128,15.09695039,.0007115,97.8289,177.1472,303.6088,56.4461,0,U,32785,999,98926,.19607E-3,.3093E-4,0
SEEDS II (CO-66),2008-021J,2026-07-13T23:01:24.924864,15.33640090,.0002932,97.7520,194.1541,158.7607,201.3756,0,U,32791,999,99139,.34146E-3,.11026E-3,0
YUBILEINY (RS30),2008-025A,2026-07-14T03:20:17.812320,12.43180930,.0018583,82.5054,338.6732,251.4538,108.4523,0,U,32953,999,82304,.36661E-3,.61E-6,0
KKS-1 (KISEKI),2009-002H,2026-07-14T02:34:52.505760,14.83187738,.0007338,98.1175,117.9763,192.7348,167.3681,0,U,33499,999,94018,.87709E-4,.66E-5,0
SWISSCUBE,2009-051B,2026-07-14T04:38:02.347008,14.62529785,.0007816,98.4009,103.5496,121.6885,238.5079,0,U,35932,999,89310,.10606E-3,.489E-5,0
BEESAT-1,2009-051C,2026-07-13T17:41:58.432704,14.61760532,.0006039,98.3937,102.6657,133.6539,226.5163,0,U,35933,999,89306,.88826E-4,.394E-5,0
ITUPSAT1,2009-051E,2026-07-13T16:23:43.334016,14.60477451,.0007976,98.4020,101.7741,147.4965,212.6727,0,U,35935,999,89260,.85196E-4,.364E-5,0
XIWANG-1 (HOPE-1),2009-072B,2026-07-14T03:32:29.908896,13.16441124,.0007514,100.4031,148.5506,166.9376,193.1933,0,U,36122,999,79655,.84357E-3,.278E-5,0
O/OREOS (USA 219),2010-062C,2026-07-13T20:22:40.710720,14.93848747,.0013908,71.9696,19.9384,7.7163,352.4219,0,U,37224,999,12062,.11239E-3,.1132E-4,0
JUGNU,2011-058B,2026-07-14T04:48:38.397024,14.13783328,.0018539,19.9593,144.3072,15.5090,113.9676,0,U,37839,999,76285,.38942E-4,.341E-5,0
SRMSAT,2011-058D,2026-07-13T10:56:57.365664,14.11580880,.00118107,19.9713,260.4725,132.1672,338.6137,0,U,37841,999,76153,.42888582E-4,.344E-5,0
STRAND-1,2013-009E,2026-07-14T01:39:32.139936,14.37178494,.0009358,98.3933,14.6434,144.1848,215.9968,0,U,39090,999,70092,.59984E-4,.136E-5,0
ZACUBE-1 (TSHEPISOSAT),2013-066B,2026-07-13T22:26:19.749120,15.01325644,.0043958,97.8009,157.4041,159.2498,201.0523,0,U,39417,999,68474,.10618E-3,.133E-4,0
GOMX-1,2013-066Q,2026-07-14T03:35:50.609184,14.69541528,.0128377,97.6470,33.9113,351.5784,8.3268,0,U,39430,999,67387,.12654E-3,.799E-5,0
