OSCAR 7 (AO-7)          
1 07530U 74089B   26195.03649198 -.00000030  00000+0  99893-4 0  9991
2 07530 101.9905 208.5629 0012657  80.4928 348.4864 12.53698534363887
PHASE 3B (AO-10)        
1 14129U 83058B   26194.10401075 -.00000187  00000+0  00000+0 0  9996
2 14129  25.9345 215.2934 6002223 122.7887 309.2966  2.05872336296023
UOSAT 2 (UO-11)         
1 14781U 84021B   26194.86752083  .00000684  00000+0  75115-4 0  9997
2 14781  97.8075 160.1477 0009198  95.1181 265.1087 14.90847126261108
LUSAT (LO-19)           
1 20442U 90005G   26195.04285069  .00000042  00000+0  31693-4 0  9994
2 20442  98.8847 217.5876 0012504 124.5771 235.6594 14.34130536906248
EYESAT A (AO-27)        
1 22825U 93061C   26195.20017669  .00000039  00000+0  31953-4 0  9998
2 22825  98.6869 262.6022 0008818  28.6268 331.5397 14.30948896710869
ITAMSAT (IO-26)         
1 22826U 93061D   26195.17152561  .00000038  00000+0  31180-4 0  9997
2 22826  98.6816 262.4937 0009021  12.3228 347.8174 14.31376485711176
RADIO ROSTO (RS15)      
1 23439U 94085A   26195.16615284 -.00000039  00000+0  11356-3 0  9994
2 23439  64.8153 259.5850 0156881 358.8979   1.1579 11.27583533298945
JAS-2 (FO-29)           
1 24278U 96046B   26195.14876856  .00000015  00000+0  50140-4 0  9995
2 24278  98.5220  40.3250 0350411  26.6515 335.2172 13.53275581476813
TECHSAT 1B (GO-32)      
1 25397U 98043D   26194.96741119  .00000013  00000+0  25815-4 0  9998
2 25397  99.0084 188.4033 0002157 116.4622 243.6777 14.24433220455142
ISS (ZARYA)             
1 25544U 98067A   26195.15353936  .00004039  00000+0  81426-4 0  9998
2 25544  51.6308 166.6375 0006704 293.6864  66.3421 15.49005057575931
PCSAT (NO-44)           
1 26931U 01043C   26195.18939458  .00000010  00000+0  34689-4 0  9993
2 26931  67.0494 174.4309 0005925 266.5157  93.5268 14.31964773294311
SAUDISAT 1C (SO-50)     
1 27607U 02058C   26195.19516802  .00000388  00000+0  63774-4 0  9991
2 27607  64.5517  45.4195 0074559 257.4690 101.8068 14.83097342268464
CUTE-1 (CO-55)          
1 27844U 03031E   26195.01226219  .00000150  00000+0  83592-4 0  9994
2 27844  98.6742 203.2342 0010809 105.7080 254.5292 14.24351102195498
CUBESAT XI-IV (CO-57)   
1 27848U 03031J   26194.52222380  .00000129  00000+0  75510-4 0  9995
2 27848  98.6773 202.4416 0010486 123.7879 236.4299 14.23634003195125
MOZHAETS 4 (RS22)       
1 27939U 03042A   26195.18432279  .00000769  00000+0  12649-3 0  9994
2 27939  98.3470  20.3073 0011131 176.4663 315.0484 14.73514156219529
CUBESAT XI-V            
1 28895U 05043F   26194.96899928  .00000696  00000+0  11722-3 0  9992
2 28895  98.3013 351.1584 0015221 118.8441 241.4296 14.72700573105698
CUTE-1.7+APD II (CO-65) 
1 32785U 08021C   26195.16052352  .00003093  00000+0  19607-3 0  9993
2 32785  97.8289 177.1472 0007115 303.6088  56.4461 15.09695039989268
SEEDS II (CO-66)        
1 32791U 08021J   26194.95931626  .00011026  00000+0  34146-3 0  9996
2 32791  97.7520 194.1541 0002932 158.7607 201.3756 15.33640090991395
YUBILEINY (RS30)        
1 32953U 08025A   26195.13909505  .00000061  00000+0  36661-3 0  9993
2 32953  82.5054 338.6732 0018583 251.4538 108.4523 12.43180930823044
KKS-1 (KISEKI)          
1 33499U 09002H   26195.10755215  .00000660  00000+0  87709-4 0  9994
2 33499  98.1175 117.9763 0007338 192.7348 167.3681 14.83187738940184
SWISSCUBE               
1 35932U 09051B   26195.19308272  .00000489  00000+0  10606-3 0  9998
2 35932  98.4009 103.5496 0007816 121.6885 238.5079 14.62529785893109
BEESAT-1                
1 35933U 09051C   26194.73748186  .00000394  00000+0  88826-4 0  9995
2 35933  98.3937 102.6657 0006039 133.6539 226.5163 14.61760532893065
ITUPSAT1                
1 35935U 09051E   26194.68314044  .00000364  00000+0  85196-4 0  9997
2 35935  98.4020 101.7741 0007976 147.4965 212.6727 14.60477451892607
XIWANG-1 (HOPE-1)       
1 36122U 09072B   26195.14756839  .00000278  00000+0  84357-3 0  9994
2 36122 100.4031 148.5506 0007514 166.9376 193.1933 13.16441124796557
O/OREOS (USA 219)       
1 37224U 10062C   26194.84908230  .00001132  00000+0  11239-3 0  9998
2 37224  71.9696  19.9384 0013908   7.7163 352.4219 14.93848747120629
JUGNU                   
1 37839U 11058B   26195.20044441  .00000341  00000+0  38942-4 0  9994
2 37839  19.9593 144.3072 0018539  15.5090 113.9676 14.13783328762856
SRMSAT                  
1 37841U 11058D   26194.45621951  .00000344  00000+0  42889-4 0  9998
2 37841  19.9713 260.4725 0011810 132.1672 338.6137 14.11580880761533
STRAND-1                
1 39090U 13009E   26195.06912199  .00000136  00000+0  59984-4 0  9992
2 39090  98.3933  14.6434 0009358 144.1848 215.9968 14.37178494700921
ZACUBE-1 (TSHEPISOSAT)  
1 39417U 13066B   26194.93495080  .00001330  00000+0  10618-3 0  9995
2 39417  97.8009 157.4041 0043958 159.2498 201.0523 15.01325644684741
GOMX-1                  
1 39430U 13066Q   26195.14989131  .00000799  00000+0  12654-3 0  9999
2 39430  97.6470  33.9113 0128377 351.5784   8.3268 14.69541528673878
